{
    "links": {
        "self": "http://www.neowsapp.com/rest/v1/neo/3825237?api_key=iIulBulltgU6a56xZRHN4H3l9WmuAYTsLGpBGhQ2"
    },
    "id": "3825237",
    "neo_reference_id": "3825237",
    "name": "(2018 LS5)",
    "designation": "2018 LS5",
    "nasa_jpl_url": "http://ssd.jpl.nasa.gov/sbdb.cgi?sstr=3825237",
    "absolute_magnitude_h": 26.6,
    "estimated_diameter": {
        "kilometers": {
            "estimated_diameter_min": 0.0127219879,
            "estimated_diameter_max": 0.0284472297
        },
        "meters": {
            "estimated_diameter_min": 12.7219878539,
            "estimated_diameter_max": 28.4472296503
        },
        "miles": {
            "estimated_diameter_min": 0.0079050743,
            "estimated_diameter_max": 0.0176762835
        },
        "feet": {
            "estimated_diameter_min": 41.7388066307,
            "estimated_diameter_max": 93.330808926
        }
    },
    "is_potentially_hazardous_asteroid": false,
    "close_approach_data": [
        {
            "close_approach_date": "2018-06-21",
            "close_approach_date_full": "2018-Jun-21 20:49",
            "epoch_date_close_approach": 1529614140000,
            "relative_velocity": {
                "kilometers_per_second": "9.0179862365",
                "kilometers_per_hour": "32464.7504513606",
                "miles_per_hour": "20172.3334124024"
            },
            "miss_distance": {
                "astronomical": "0.0167108259",
                "lunar": "6.5005112751",
                "kilometers": "2499903.960580833",
                "miles": "1553368.2904601754"
            },
            "orbiting_body": "Earth"
        }
    ],
    "orbital_data": {
        "orbit_id": "7",
        "orbit_determination_date": "2018-07-09 08:58:10",
        "first_observation_date": "2018-06-14",
        "last_observation_date": "2018-06-25",
        "data_arc_in_days": 11,
        "observations_used": 27,
        "orbit_uncertainty": "8",
        "minimum_orbit_intersection": ".000924382",
        "jupiter_tisserand_invariant": "3.256",
        "epoch_osculation": "2458293.5",
        "eccentricity": ".5854643550348605",
        "semi_major_axis": "2.420254164769402",
        "inclination": ".1910031627148306",
        "ascending_node_longitude": "81.75188743417685",
        "orbital_period": "1375.276085180584",
        "perihelion_distance": "1.003281621172249",
        "perihelion_argument": "210.4123812067715",
        "aphelion_distance": "3.837226708366555",
        "perihelion_time": "2458309.016499340837",
        "mean_anomaly": "355.9383138971926",
        "mean_motion": ".26176562210251",
        "equinox": "J2000",
        "orbit_class": {
            "orbit_class_type": "APO",
            "orbit_class_description": "Near-Earth asteroid orbits which cross the Earth’s orbit similar to that of 1862 Apollo",
            "orbit_class_range": "a (semi-major axis) > 1.0 AU; q (perihelion) < 1.017 AU"
        }
    },
    "is_sentry_object": false
}